2025-284B               
1 66914U 25284B   25350.28554881  .00008068  00000+0  38445-3 0  9991
2 66914  80.4045 125.2713 0008179 234.9626 125.0834 15.18985981  1668
HULIANWANG DIGUI-105    
1 66915U 25285A   26003.15324476 -.00000056  00000+0  66511-4 0  9996
2 66915  50.0084  30.2824 0000705 201.4875 158.5997 13.96821936  3919
HULIANWANG DIGUI-106    
1 66916U 25285B   26003.22139199  .00000155  00000+0  21771-3 0  9998
2 66916  50.0047  29.9836 0000600 164.7976 195.2944 13.96718602  3920
HULIANWANG DIGUI-107    
1 66917U 25285C   26003.14790161 -.00000034  00000+0  81607-4 0  9994
2 66917  50.0063  30.2468 0000504 184.3822 175.7075 13.96940512  3910
HULIANWANG DIGUI-108    
1 66918U 25285D   26001.07274741 -.00000041  00000+0  74803-4 0  9994
2 66918  50.0155  38.6440 0006989 349.6929  10.3829 13.99203865  3627
HULIANWANG DIGUI-109    
1 66919U 25285E   26003.14344459 -.00000020  00000+0  91562-4 0  9997
2 66919  50.0368  30.2742 0004243 325.5658  34.4969 13.97405798  3911
HULIANWANG DIGUI-110    
1 66920U 25285F   26003.21259661  .00000017  00000+0  11687-3 0  9991
2 66920  50.0140  29.9477 0001049 354.6690   5.4201 13.97587768  3927
HULIANWANG DIGUI-111    
1 66921U 25285G   26003.21124466 -.00000171  00000+0 -15644-4 0  9997
2 66921  50.0151  29.9433 0000374  32.7615 327.3310 13.97646934  3921
HULIANWANG DIGUI-112    
1 66922U 25285H   26003.13844301  .00000092  00000+0  16970-3 0  9998
2 66922  50.0131  30.2187 0000733 196.6901 163.3977 13.97734294  3911
HULIANWANG DIGUI-113    
1 66923U 25285J   26003.20708230  .00000034  00000+0  12846-3 0  9991
2 66923  50.0187  29.9044 0003260   4.3732 355.7198 13.98020498  3923
CZ-8A R/B               
1 66924U 25285K   26003.03740619  .00000228  00000+0  13854-3 0  9995
2 66924  50.0092  25.4967 0119181 181.8093 178.2406 14.30513356  3977
STARLINK-35945          
1 66925U 25286A   26003.12174988  .00094222  00000+0  16798-2 0  9993
2 66925  53.1594 305.4451 0001281  89.7789 270.3367 15.49343106  5345
